start=new Date('2021-11-16T00:00:00.000Z').valueOf();
sats=[{"REF_FRAME":"TEME","OBJECT_NAME":"STARLINK-1232","EPHEMERIS_TYPE":"0","PERIAPSIS":"548.577","NORAD_CAT_ID":"45213","PERIOD":"95.644","CLASSIFICATION_TYPE":"U","MEAN_MOTION_DOT":"-0.00000410","SEMIMAJOR_AXIS":"6927.848","MEAN_MOTION":"15.05584777","RCS_SIZE":"LARGE","FILE":"3215928","MEAN_MOTION_DDOT":"0.0000000000000","COUNTRY_CODE":"US","SITE":"AFETR","MEAN_ANOMALY":"296.1777","MEAN_ELEMENT_THEORY":"SGP4","RA_OF_ASC_NODE":"256.4155","ARG_OF_PERICENTER":"63.9380","APOAPSIS":"550.849","LAUNCH_DATE":"2020-02-17","TIME_SYSTEM":"UTC","OBJECT_ID":"2020-012AM","TLE_LINE1":"1 45213U 20012AM  21319.83401497 -.00000410  00000-0 -89495-5 0  9999","TLE_LINE2":"2 45213  53.0555 256.4155 0001640  63.9380 296.1777 15.05584777 97754","CENTER_NAME":"EARTH","REV_AT_EPOCH":"9775","DECAY_DATE":null,"ECCENTRICITY":"0.00016400","ELEMENT_SET_NO":"999","BSTAR":"-0.00000894950000","OBJECT_TYPE":"PAYLOAD","EPOCH":"2021-11-15T20:00:58.893408","INCLINATION":"53.0555","GP_ID":"189835484"},{"RCS_SIZE":"LARGE","MEAN_MOTION_DDOT":"0.0000000000000","FILE":"3215681","SITE":"AFETR","MEAN_ELEMENT_THEORY":"SGP4","MEAN_ANOMALY":"288.2798","COUNTRY_CODE":"US","ARG_OF_PERICENTER":"71.8354","RA_OF_ASC_NODE":"257.7325","APOAPSIS":"548.233","REF_FRAME":"TEME","OBJECT_NAME":"STARLINK-1233","EPHEMERIS_TYPE":"0","PERIAPSIS":"546.155","MEAN_MOTION_DOT":"0.00005957","CLASSIFICATION_TYPE":"U","PERIOD":"95.592","NORAD_CAT_ID":"45214","SEMIMAJOR_AXIS":"6925.329","MEAN_MOTION":"15.06406308","ECCENTRICITY":"0.00015000","DECAY_DATE":null,"ELEMENT_SET_NO":"999","INCLINATION":"53.0526","EPOCH":"2021-11-15T12:58:55.487136","BSTAR":"0.00041838000000","OBJECT_TYPE":"PAYLOAD","GP_ID":"189807442","LAUNCH_DATE":"2020-02-17","OBJECT_ID":"2020-012AN","TIME_SYSTEM":"UTC","TLE_LINE2":"2 45214  53.0526 257.7325 0001500  71.8354 288.2798 15.06406308 97704","TLE_LINE1":"1 45214U 20012AN  21319.54091999  .00005957  00000-0  41838-3 0  9996","CENTER_NAME":"EARTH","REV_AT_EPOCH":"9770"},{"ECCENTRICITY":"0.00022720","DECAY_DATE":null,"ELEMENT_SET_NO":"999","EPOCH":"2021-11-15T06:32:31.202304","INCLINATION":"53.0547","BSTAR":"-0.00795290000000","OBJECT_TYPE":"PAYLOAD","GP_ID":"189808194","LAUNCH_DATE":"2020-02-17","OBJECT_ID":"2020-012AP","TIME_SYSTEM":"UTC","TLE_LINE2":"2 45215  53.0547 258.9455 0002272  33.1029 327.0102 15.05529096 97601","TLE_LINE1":"1 45215U 20012AP  21319.27258336 -.00114152  00000-0 -79529-2 0  9994","CENTER_NAME":"EARTH","REV_AT_EPOCH":"9760","RCS_SIZE":"LARGE","MEAN_MOTION_DDOT":"0.0000000000000","FILE":"3215681","MEAN_ELEMENT_THEORY":"SGP4","SITE":"AFETR","MEAN_ANOMALY":"327.0102","COUNTRY_CODE":"US","ARG_OF_PERICENTER":"33.1029","RA_OF_ASC_NODE":"258.9455","APOAPSIS":"551.458","REF_FRAME":"TEME","EPHEMERIS_TYPE":"0","OBJECT_NAME":"STARLINK-1245","PERIAPSIS":"548.310","MEAN_MOTION_DOT":"-0.00114152","PERIOD":"95.647","CLASSIFICATION_TYPE":"U","NORAD_CAT_ID":"45215","SEMIMAJOR_AXIS":"6928.019","MEAN_MOTION":"15.05529096"},{"SEMIMAJOR_AXIS":"6666.538","CLASSIFICATION_TYPE":"U","PERIOD":"90.284","NORAD_CAT_ID":"45216","MEAN_MOTION_DOT":"0.00798694","MEAN_MOTION":"15.94968969","REF_FRAME":"TEME","PERIAPSIS":"287.004","OBJECT_NAME":"STARLINK-1254","EPHEMERIS_TYPE":"0","RA_OF_ASC_NODE":"224.7626","ARG_OF_PERICENTER":"184.0388","COUNTRY_CODE":"US","MEAN_ANOMALY":"176.0623","SITE":"AFETR","MEAN_ELEMENT_THEORY":"SGP4","APOAPSIS":"289.801","RCS_SIZE":"LARGE","FILE":"3215928","MEAN_MOTION_DDOT":"0.0002857600000","TLE_LINE1":"1 45216U 20012AQ  21319.78253751  .00798694  28576-3  20230-2 0  9990","TLE_LINE2":"2 45216  53.0530 224.7626 0002098 184.0388 176.0623 15.94968969 98037","REV_AT_EPOCH":"9803","CENTER_NAME":"EARTH","LAUNCH_DATE":"2020-02-17","OBJECT_ID":"2020-012AQ","TIME_SYSTEM":"UTC","GP_ID":"189835734","ELEMENT_SET_NO":"999","DECAY_DATE":null,"ECCENTRICITY":"0.00020980","BSTAR":"0.00202300000000","OBJECT_TYPE":"PAYLOAD","INCLINATION":"53.0530","EPOCH":"2021-11-15T18:46:51.240864"},{"OBJECT_ID":"2020-012AR","TIME_SYSTEM":"UTC","LAUNCH_DATE":"2020-02-17","CENTER_NAME":"EARTH","REV_AT_EPOCH":"9776","TLE_LINE2":"2 45217  53.0549 256.0832 0001718  74.9199 285.1980 15.06402526 97762","TLE_LINE1":"1 45217U 20012AR  21319.90949686  .00001417  00000-0  11402-3 0  9995","EPOCH":"2021-11-15T21:49:40.528704","INCLINATION":"53.0549","OBJECT_TYPE":"PAYLOAD","BSTAR":"0.00011402000000","ECCENTRICITY":"0.00017180","DECAY_DATE":null,"ELEMENT_SET_NO":"999","GP_ID":"189835984","EPHEMERIS_TYPE":"0","OBJECT_NAME":"STARLINK-1271","PERIAPSIS":"546.016","REF_FRAME":"TEME","MEAN_MOTION":"15.06402526","MEAN_MOTION_DOT":"0.00001417","PERIOD":"95.592","CLASSIFICATION_TYPE":"U","NORAD_CAT_ID":"45217","SEMIMAJOR_AXIS":"6925.341","MEAN_MOTION_DDOT":"0.0000000000000","FILE":"3215928","RCS_SIZE":"LARGE","APOAPSIS":"548.396","SITE":"AFETR","MEAN_ANOMALY":"285.1980","MEAN_ELEMENT_THEORY":"SGP4","COUNTRY_CODE":"US","ARG_OF_PERICENTER":"74.9199","RA_OF_ASC_NODE":"256.0832"},{"MEAN_MOTION":"15.06406878","SEMIMAJOR_AXIS":"6925.327","MEAN_MOTION_DOT":"0.00003426","CLASSIFICATION_TYPE":"U","PERIOD":"95.592","NORAD_CAT_ID":"45219","PERIAPSIS":"545.998","EPHEMERIS_TYPE":"0","OBJECT_NAME":"STARLINK-1187","REF_FRAME":"TEME","APOAPSIS":"548.387","ARG_OF_PERICENTER":"72.3954","RA_OF_ASC_NODE":"236.0903","SITE":"AFETR","MEAN_ELEMENT_THEORY":"SGP4","MEAN_ANOMALY":"287.7224","COUNTRY_CODE":"US","MEAN_MOTION_DDOT":"0.0000000000000","FILE":"3215928","RCS_SIZE":"LARGE","REV_AT_EPOCH":"9805","CENTER_NAME":"EARTH","TLE_LINE2":"2 45219  53.0538 236.0903 0001725  72.3954 287.7224 15.06406878 98054","TLE_LINE1":"1 45219U 20012AT  21319.90765626  .00003426  00000-0  24877-3 0  9999","TIME_SYSTEM":"UTC","OBJECT_ID":"2020-012AT","LAUNCH_DATE":"2020-02-17","GP_ID":"189836236","EPOCH":"2021-11-15T21:47:01.500864","INCLINATION":"53.0538","OBJECT_TYPE":"PAYLOAD","BSTAR":"0.00024877000000","ELEMENT_SET_NO":"999","ECCENTRICITY":"0.00017250","DECAY_DATE":null},{"ECCENTRICITY":"0.00011850","DECAY_DATE":null,"ELEMENT_SET_NO":"999","EPOCH":"2021-11-15T22:34:57.410400","INCLINATION":"53.0506","OBJECT_TYPE":"PAYLOAD","BSTAR":"0.00006534600000","GP_ID":"189836487","LAUNCH_DATE":"2020-02-17","OBJECT_ID":"2020-012AU","TIME_SYSTEM":"UTC","TLE_LINE2":"2 45220  53.0506 196.8992 0001185 136.1125 223.9995 15.90942226 98480","TLE_LINE1":"1 45220U 20012AU  21319.94094225  .00017551  11211-4  65346-4 0  9996","CENTER_NAME":"EARTH","REV_AT_EPOCH":"9848","RCS_SIZE":"LARGE","MEAN_MOTION_DDOT":"0.0000112110000","FILE":"3215928","SITE":"AFETR","MEAN_ELEMENT_THEORY":"SGP4","MEAN_ANOMALY":"223.9995","COUNTRY_CODE":"US","ARG_OF_PERICENTER":"136.1125","RA_OF_ASC_NODE":"196.8992","APOAPSIS":"300.438","REF_FRAME":"TEME","OBJECT_NAME":"STARLINK-1188","EPHEMERIS_TYPE":"0","PERIAPSIS":"298.856","MEAN_MOTION_DOT":"0.00017551","CLASSIFICATION_TYPE":"U","PERIOD":"90.512","NORAD_CAT_ID":"45220","SEMIMAJOR_AXIS":"6677.782","MEAN_MOTION":"15.90942226"},{"EPOCH":"2021-11-15T21:52:20.486208","INCLINATION":"53.0550","BSTAR":"0.00013183000000","OBJECT_TYPE":"PAYLOAD","ELEMENT_SET_NO":"999","ECCENTRICITY":"0.00017080","DECAY_DATE":null,"GP_ID":"189835235","TIME_SYSTEM":"UTC","OBJECT_ID":"2020-012AV","LAUNCH_DATE":"2020-02-17","REV_AT_EPOCH":"9804","CENTER_NAME":"EARTH","TLE_LINE2":"2 45221  53.0550 236.0770 0001708  78.7567 281.3614 15.06402100 98040","TLE_LINE1":"1 45221U 20012AV  21319.91134822  .00001683  00000-0  13183-3 0  9992","MEAN_MOTION_DDOT":"0.0000000000000","FILE":"3215928","RCS_SIZE":"LARGE","APOAPSIS":"548.390","ARG_OF_PERICENTER":"78.7567","RA_OF_ASC_NODE":"236.0770","MEAN_ANOMALY":"281.3614","SITE":"AFETR","MEAN_ELEMENT_THEORY":"SGP4","COUNTRY_CODE":"US","PERIAPSIS":"546.024","OBJECT_NAME":"STARLINK-1189","EPHEMERIS_TYPE":"0","REF_FRAME":"TEME","MEAN_MOTION":"15.06402100","SEMIMAJOR_AXIS":"6925.342","MEAN_MOTION_DOT":"0.00001683","NORAD_CAT_ID":"45221","PERIOD":"95.592","CLASSIFICATION_TYPE":"U"},{"RA_OF_ASC_NODE":"236.6453","ARG_OF_PERICENTER":"68.3177","COUNTRY_CODE":"US","MEAN_ELEMENT_THEORY":"SGP4","SITE":"AFETR","MEAN_ANOMALY":"291.8001","APOAPSIS":"548.420","RCS_SIZE":"LARGE","FILE":"3215928","MEAN_MOTION_DDOT":"0.0000000000000","SEMIMAJOR_AXIS":"6925.322","PERIOD":"95.592","NORAD_CAT_ID":"45222","CLASSIFICATION_TYPE":"U","MEAN_MOTION_DOT":"0.00003223","MEAN_MOTION":"15.06408741","REF_FRAME":"TEME","PERIAPSIS":"545.953","EPHEMERIS_TYPE":"0","OBJECT_NAME":"STARLINK-1191","GP_ID":"189835485","ELEMENT_SET_NO":"999","DECAY_DATE":null,"ECCENTRICITY":"0.00017810","OBJECT_TYPE":"PAYLOAD","BSTAR":"0.00023509000000","EPOCH":"2021-11-15T18:51:52.082208","INCLINATION":"53.0544","TLE_LINE1":"1 45222U 20012AW  21319.78601947  .00003223  00000-0  23509-3 0  9990","TLE_LINE2":"2 45222  53.0544 236.6453 0001781  68.3177 291.8001 15.06408741 98022","REV_AT_EPOCH":"9802","CENTER_NAME":"EARTH","LAUNCH_DATE":"2020-02-17","TIME_SYSTEM":"UTC","OBJECT_ID":"2020-012AW"},{"APOAPSIS":"548.394","RA_OF_ASC_NODE":"235.9524","ARG_OF_PERICENTER":"66.2074","COUNTRY_CODE":"US","MEAN_ELEMENT_THEORY":"SGP4","SITE":"AFETR","MEAN_ANOMALY":"293.9089","FILE":"3215928","MEAN_MOTION_DDOT":"0.0000000000000","RCS_SIZE":"LARGE","MEAN_MOTION":"15.06391422","SEMIMAJOR_AXIS":"6925.375","CLASSIFICATION_TYPE":"U","PERIOD":"95.593","NORAD_CAT_ID":"45223","MEAN_MOTION_DOT":"-0.00000475","PERIAPSIS":"546.086","EPHEMERIS_TYPE":"0","OBJECT_NAME":"STARLINK-1212","REF_FRAME":"TEME","GP_ID":"189836736","OBJECT_TYPE":"PAYLOAD","BSTAR":"-0.00001300100000","INCLINATION":"53.0547","EPOCH":"2021-11-15T22:34:48.210528","ELEMENT_SET_NO":"999","DECAY_DATE":null,"ECCENTRICITY":"0.00016660","REV_AT_EPOCH":"9805","CENTER_NAME":"EARTH","TLE_LINE1":"1 45223U 20012AX  21319.94083577 -.00000475  00000-0 -13001-4 0  9997","TLE_LINE2":"2 45223  53.0547 235.9524 0001666  66.2074 293.9089 15.06391422 98051","OBJECT_ID":"2020-012AX","TIME_SYSTEM":"UTC","LAUNCH_DATE":"2020-02-17"}];
